{
"type": "FeatureCollection",
"name": "point",
"features": [
{ "type": "Feature", "properties": { "id": 0, "lon": 122.52048320156401, "lat": 37.035763845863499 }, "geometry": { "type": "Point", "coordinates": [ 122.520483201564005, 37.035763845863499, 0.0 ] } },
{ "type": "Feature", "properties": { "id": 1, "lon": 122.520361961193, "lat": 37.036109214570402 }, "geometry": { "type": "Point", "coordinates": [ 122.520361961193004, 37.036109214570402, 0.0 ] } },
{ "type": "Feature", "properties": { "id": 2, "lon": 122.52048320156401, "lat": 37.035763845863499 }, "geometry": { "type": "Point", "coordinates": [ 122.520483201564005, 37.035763845863499, 0.0 ] } },
{ "type": "Feature", "properties": { "id": 3, "lon": 122.528071224877, "lat": 37.030600408915298 }, "geometry": { "type": "Point", "coordinates": [ 122.528071224876996, 37.030600408915298, 0.0 ] } },
{ "type": "Feature", "properties": { "id": 4, "lon": 122.528071224877, "lat": 37.030600408915298 }, "geometry": { "type": "Point", "coordinates": [ 122.528071224876996, 37.030600408915298, 0.0 ] } },
{ "type": "Feature", "properties": { "id": 5, "lon": 122.548136552608, "lat": 37.028649072770897 }, "geometry": { "type": "Point", "coordinates": [ 122.548136552608, 37.028649072770897, 0.0 ] } },
{ "type": "Feature", "properties": { "id": 6, "lon": 122.551530508895, "lat": 37.0457946808977 }, "geometry": { "type": "Point", "coordinates": [ 122.551530508894999, 37.0457946808977, 0.0 ] } },
{ "type": "Feature", "properties": { "id": 7, "lon": 122.536863300737, "lat": 37.052227086334099 }, "geometry": { "type": "Point", "coordinates": [ 122.536863300736997, 37.052227086334099, 0.0 ] } }
]
}
