{
"type": "FeatureCollection",
"name": "point",
"features": [
{ "type": "Feature", "properties": { "id": 0, "lon": 134.27874100020199, "lat": -4.0180377359976003 }, "geometry": { "type": "Point", "coordinates": [ 134.27874100020199, -4.0180377359976, 0.0 ] } },
{ "type": "Feature", "properties": { "id": 1, "lon": 134.27929397863599, "lat": -4.0177520220749701 }, "geometry": { "type": "Point", "coordinates": [ 134.279293978635991, -4.01775202207497, 0.0 ] } },
{ "type": "Feature", "properties": { "id": 2, "lon": 134.27874100020199, "lat": -4.0180377359976003 }, "geometry": { "type": "Point", "coordinates": [ 134.27874100020199, -4.0180377359976, 0.0 ] } },
{ "type": "Feature", "properties": { "id": 3, "lon": 134.268609032743, "lat": -4.0338976178928396 }, "geometry": { "type": "Point", "coordinates": [ 134.268609032743001, -4.03389761789284, 0.0 ] } },
{ "type": "Feature", "properties": { "id": 4, "lon": 134.268609032743, "lat": -4.0338976178928396 }, "geometry": { "type": "Point", "coordinates": [ 134.268609032743001, -4.03389761789284, 0.0 ] } },
{ "type": "Feature", "properties": { "id": 5, "lon": 134.27832330874401, "lat": -4.0607819487733599 }, "geometry": { "type": "Point", "coordinates": [ 134.278323308744007, -4.06078194877336, 0.0 ] } },
{ "type": "Feature", "properties": { "id": 6, "lon": 134.294866724114, "lat": -4.0552026614396199 }, "geometry": { "type": "Point", "coordinates": [ 134.294866724114001, -4.05520266143962, 0.0 ] } },
{ "type": "Feature", "properties": { "id": 7, "lon": 134.305181135141, "lat": -4.0337902006053898 }, "geometry": { "type": "Point", "coordinates": [ 134.305181135140998, -4.03379020060539, 0.0 ] } },
{ "type": "Feature", "properties": { "id": 8, "lon": 134.29933063294601, "lat": -4.0235842595807698 }, "geometry": { "type": "Point", "coordinates": [ 134.29933063294601, -4.02358425958077, 0.0 ] } }
]
}
