{
"type": "FeatureCollection",
"name": "polygon",
"features": [
{ "type": "Feature", "properties": { "id": 1 }, "geometry": { "type": "Polygon", "coordinates": [ [ [ -126.899306242858003, 52.359201777586897, 0.0 ], [ -126.881420166468004, 52.351062460083298, 0.0 ], [ -126.867859023313002, 52.355625002234703, 0.0 ], [ -126.876521757630996, 52.377133274789898, 0.0 ], [ -126.876457275559005, 52.3770970232884, 0.0 ], [ -126.876521757630996, 52.377133274789898, 0.0 ], [ -126.896879096990006, 52.373187346257701, 0.0 ], [ -126.896879096990006, 52.373187346257701, 0.0 ], [ -126.899306242858003, 52.359201777586897, 0.0 ] ] ] } }
]
}
