{
"type": "FeatureCollection",
"name": "point",
"features": [
{ "type": "Feature", "properties": { "id": 0, "lon": -90.978567722212105, "lat": 69.617143651718806 }, "geometry": { "type": "Point", "coordinates": [ -90.978567722212105, 69.617143651718806, 0.0 ] } },
{ "type": "Feature", "properties": { "id": 1, "lon": -90.914829585394301, "lat": 69.611941720456997 }, "geometry": { "type": "Point", "coordinates": [ -90.914829585394301, 69.611941720456997, 0.0 ] } },
{ "type": "Feature", "properties": { "id": 2, "lon": -90.917075291129507, "lat": 69.611600750032096 }, "geometry": { "type": "Point", "coordinates": [ -90.917075291129507, 69.611600750032096, 0.0 ] } },
{ "type": "Feature", "properties": { "id": 3, "lon": -90.914829585394301, "lat": 69.611941720456997 }, "geometry": { "type": "Point", "coordinates": [ -90.914829585394301, 69.611941720456997, 0.0 ] } },
{ "type": "Feature", "properties": { "id": 4, "lon": -90.891858374037199, "lat": 69.634382626282502 }, "geometry": { "type": "Point", "coordinates": [ -90.891858374037199, 69.634382626282502, 0.0 ] } },
{ "type": "Feature", "properties": { "id": 5, "lon": -90.891858374037199, "lat": 69.634382626282502 }, "geometry": { "type": "Point", "coordinates": [ -90.891858374037199, 69.634382626282502, 0.0 ] } },
{ "type": "Feature", "properties": { "id": 6, "lon": -90.934761851142994, "lat": 69.6426812828159 }, "geometry": { "type": "Point", "coordinates": [ -90.934761851142994, 69.6426812828159, 0.0 ] } },
{ "type": "Feature", "properties": { "id": 7, "lon": -90.984858792725205, "lat": 69.634099429507103 }, "geometry": { "type": "Point", "coordinates": [ -90.984858792725205, 69.634099429507103, 0.0 ] } },
{ "type": "Feature", "properties": { "id": 8, "lon": -90.991055723966696, "lat": 69.6270832734414 }, "geometry": { "type": "Point", "coordinates": [ -90.991055723966696, 69.6270832734414, 0.0 ] } }
]
}
