{
"type": "FeatureCollection",
"name": "polygon",
"features": [
{ "type": "Feature", "properties": { "id": 1 }, "geometry": { "type": "Polygon", "coordinates": [ [ [ 135.724163671560007, 35.525348421784003, 0.0 ], [ 135.728017774899996, 35.515555084394499, 0.0 ], [ 135.73588148917699, 35.513135230254697, 0.0 ], [ 135.739301679736997, 35.514597601522702, 0.0 ], [ 135.743367650079989, 35.532705849982598, 0.0 ], [ 135.743664791267008, 35.532228592848497, 0.0 ], [ 135.743367650079989, 35.532705849982598, 0.0 ], [ 135.727251123846997, 35.5328547221633, 0.0 ], [ 135.727251123846997, 35.5328547221633, 0.0 ], [ 135.724163671560007, 35.525348421784003, 0.0 ] ] ] } }
]
}
