{
"type": "FeatureCollection",
"name": "polygon",
"features": [
{ "type": "Feature", "properties": { "id": 1 }, "geometry": { "type": "Polygon", "coordinates": [ [ [ 114.240651295240994, -3.35537858048536, 0.0 ], [ 114.236813028103995, -3.36223126356713, 0.0 ], [ 114.245527723584999, -3.37752404447915, 0.0 ], [ 114.255149672894007, -3.37129072013757, 0.0 ], [ 114.254272810776996, -3.35441437650222, 0.0 ], [ 114.254820027022006, -3.35506268425967, 0.0 ], [ 114.254272810776996, -3.35441437650222, 0.0 ], [ 114.240651295240994, -3.35537858048536, 0.0 ], [ 114.240651295240994, -3.35537858048536, 0.0 ] ] ] } }
]
}
