{
"type": "FeatureCollection",
"name": "polygon",
"features": [
{ "type": "Feature", "properties": { "id": 1 }, "geometry": { "type": "Polygon", "coordinates": [ [ [ 126.342064848613006, 34.871009227656501, 0.0 ], [ 126.342724529883, 34.869695335873502, 0.0 ], [ 126.342064848613006, 34.871009227656501, 0.0 ], [ 126.304082968890995, 34.879204932037297, 0.0 ], [ 126.304082968890995, 34.879204932037297, 0.0 ], [ 126.292847071577995, 34.860171287182098, 0.0 ], [ 126.316570110021999, 34.847656815426603, 0.0 ], [ 126.333838210452001, 34.853961227357999, 0.0 ], [ 126.342064848613006, 34.871009227656501, 0.0 ] ] ] } }
]
}
