{
"type": "FeatureCollection",
"name": "polygon",
"features": [
{ "type": "Feature", "properties": { "id": 1 }, "geometry": { "type": "Polygon", "coordinates": [ [ [ -10.225710081760999, 51.610847952542798, 0.0 ], [ -10.253834916641701, 51.605917368852197, 0.0 ], [ -10.251162136585901, 51.586982376130102, 0.0 ], [ -10.2115254793428, 51.583065712496698, 0.0 ], [ -10.199199375233899, 51.5913907711966, 0.0 ], [ -10.1990346713725, 51.5894152063129, 0.0 ], [ -10.199199375233899, 51.5913907711966, 0.0 ], [ -10.225710081760999, 51.610847952542798, 0.0 ], [ -10.225710081760999, 51.610847952542798, 0.0 ] ] ] } }
]
}
