{
"type": "FeatureCollection",
"name": "polygon",
"features": [
{ "type": "Feature", "properties": { "id": 1 }, "geometry": { "type": "Polygon", "coordinates": [ [ [ -101.768931067536002, 70.266869035017507, 0.0 ], [ -101.768931067536002, 70.266869035017507, 0.0 ], [ -101.729500723482005, 70.282641064236699, 0.0 ], [ -101.736336090986995, 70.285498553279893, 0.0 ], [ -101.775822946443, 70.290239438927401, 0.0 ], [ -101.813493722220997, 70.286447381222501, 0.0 ], [ -101.831658448555004, 70.273241622490502, 0.0 ], [ -101.831700198079005, 70.273262242646197, 0.0 ], [ -101.831658448555004, 70.273241622490502, 0.0 ], [ -101.768931067536002, 70.266869035017507, 0.0 ] ] ] } }
]
}
