{
"type": "FeatureCollection",
"name": "polygon",
"features": [
{ "type": "Feature", "properties": { "id": 1 }, "geometry": { "type": "Polygon", "coordinates": [ [ [ 72.707420296040098, 21.058358722206599, 0.0 ], [ 72.730687638198802, 21.065872139785501, 0.0 ], [ 72.730577592060996, 21.065721492596701, 0.0 ], [ 72.730687638198802, 21.065872139785501, 0.0 ], [ 72.728815829853403, 21.076933247848501, 0.0 ], [ 72.728815829853403, 21.076933247848501, 0.0 ], [ 72.716634754827098, 21.083668157810401, 0.0 ], [ 72.700900808942194, 21.074498465883501, 0.0 ], [ 72.707420296040098, 21.058358722206599, 0.0 ] ] ] } }
]
}
