{
"type": "FeatureCollection",
"name": "polygon",
"features": [
{ "type": "Feature", "properties": { "id": 1 }, "geometry": { "type": "Polygon", "coordinates": [ [ [ 134.27874100020199, -4.0180377359976, 0.0 ], [ 134.279293978635991, -4.01775202207497, 0.0 ], [ 134.27874100020199, -4.0180377359976, 0.0 ], [ 134.268609032743001, -4.03389761789284, 0.0 ], [ 134.268609032743001, -4.03389761789284, 0.0 ], [ 134.278323308744007, -4.06078194877336, 0.0 ], [ 134.294866724114001, -4.05520266143962, 0.0 ], [ 134.305181135140998, -4.03379020060539, 0.0 ], [ 134.29933063294601, -4.02358425958077, 0.0 ], [ 134.27874100020199, -4.0180377359976, 0.0 ] ] ] } }
]
}
