{
"type": "FeatureCollection",
"name": "polygon",
"features": [
{ "type": "Feature", "properties": { "id": 1 }, "geometry": { "type": "Polygon", "coordinates": [ [ [ 121.529472445430002, 22.029831124227101, 0.0 ], [ 121.532155155463002, 22.031712521681001, 0.0 ], [ 121.529472445430002, 22.029831124227101, 0.0 ], [ 121.531058170643007, 21.979287884890201, 0.0 ], [ 121.531058170643007, 21.979287884890201, 0.0 ], [ 121.563297310180999, 21.956010976314399, 0.0 ], [ 121.626581750311004, 21.9816746225247, 0.0 ], [ 121.616319457556003, 22.034021018394299, 0.0 ], [ 121.529472445430002, 22.029831124227101, 0.0 ] ] ] } }
]
}
