{
"type": "FeatureCollection",
"name": "point",
"features": [
{ "type": "Feature", "properties": { "id": 0, "lon": 126.576124722797, "lat": 34.666878092444897 }, "geometry": { "type": "Point", "coordinates": [ 126.576124722797005, 34.666878092444897, 0.0 ] } },
{ "type": "Feature", "properties": { "id": 1, "lon": 126.576124722797, "lat": 34.666878092444897 }, "geometry": { "type": "Point", "coordinates": [ 126.576124722797005, 34.666878092444897, 0.0 ] } },
{ "type": "Feature", "properties": { "id": 2, "lon": 126.55901856014501, "lat": 34.673465639089798 }, "geometry": { "type": "Point", "coordinates": [ 126.559018560145006, 34.673465639089798, 0.0 ] } },
{ "type": "Feature", "properties": { "id": 3, "lon": 126.545737065654, "lat": 34.664603290507102 }, "geometry": { "type": "Point", "coordinates": [ 126.545737065653995, 34.664603290507102, 0.0 ] } },
{ "type": "Feature", "properties": { "id": 4, "lon": 126.553661986739, "lat": 34.650436305091098 }, "geometry": { "type": "Point", "coordinates": [ 126.553661986739002, 34.650436305091098, 0.0 ] } },
{ "type": "Feature", "properties": { "id": 5, "lon": 126.57500409593599, "lat": 34.647457076372099 }, "geometry": { "type": "Point", "coordinates": [ 126.575004095935995, 34.647457076372099, 0.0 ] } },
{ "type": "Feature", "properties": { "id": 6, "lon": 126.57476080880301, "lat": 34.647310599255299 }, "geometry": { "type": "Point", "coordinates": [ 126.574760808803006, 34.647310599255299, 0.0 ] } },
{ "type": "Feature", "properties": { "id": 7, "lon": 126.57500409593599, "lat": 34.647457076372099 }, "geometry": { "type": "Point", "coordinates": [ 126.575004095935995, 34.647457076372099, 0.0 ] } }
]
}
