{
"type": "FeatureCollection",
"name": "point",
"features": [
{ "type": "Feature", "properties": { "id": 0, "lon": -10.1990346713725, "lat": 51.5894152063129 }, "geometry": { "type": "Point", "coordinates": [ -10.1990346713725, 51.5894152063129, 0.0 ] } },
{ "type": "Feature", "properties": { "id": 1, "lon": -10.173021310659699, "lat": 51.582724176657599 }, "geometry": { "type": "Point", "coordinates": [ -10.173021310659699, 51.582724176657599, 0.0 ] } },
{ "type": "Feature", "properties": { "id": 2, "lon": -10.173021310659699, "lat": 51.582724176657599 }, "geometry": { "type": "Point", "coordinates": [ -10.173021310659699, 51.582724176657599, 0.0 ] } },
{ "type": "Feature", "properties": { "id": 3, "lon": -10.1480876736606, "lat": 51.5979178358821 }, "geometry": { "type": "Point", "coordinates": [ -10.1480876736606, 51.5979178358821, 0.0 ] } },
{ "type": "Feature", "properties": { "id": 4, "lon": -10.147336036323599, "lat": 51.602685430776503 }, "geometry": { "type": "Point", "coordinates": [ -10.147336036323599, 51.602685430776503, 0.0 ] } },
{ "type": "Feature", "properties": { "id": 5, "lon": -10.157083340472401, "lat": 51.606357004967499 }, "geometry": { "type": "Point", "coordinates": [ -10.157083340472401, 51.606357004967499, 0.0 ] } },
{ "type": "Feature", "properties": { "id": 6, "lon": -10.1849190607991, "lat": 51.603572809940196 }, "geometry": { "type": "Point", "coordinates": [ -10.1849190607991, 51.603572809940196, 0.0 ] } },
{ "type": "Feature", "properties": { "id": 7, "lon": -10.1990346713725, "lat": 51.5894152063129 }, "geometry": { "type": "Point", "coordinates": [ -10.1990346713725, 51.5894152063129, 0.0 ] } },
{ "type": "Feature", "properties": { "id": 8, "lon": -10.199199375233899, "lat": 51.5913907711966 }, "geometry": { "type": "Point", "coordinates": [ -10.199199375233899, 51.5913907711966, 0.0 ] } }
]
}
