{
"type": "FeatureCollection",
"name": "polygon",
"features": [
{ "type": "Feature", "properties": { "id": 1 }, "geometry": { "type": "Polygon", "coordinates": [ [ [ 125.977340514898003, 9.40153651306429, 0.0 ], [ 125.976939697400994, 9.40192062307181, 0.0 ], [ 125.977340514898003, 9.40153651306429, 0.0 ], [ 125.994826770204995, 9.404954100692629, 0.0 ], [ 125.994826770204995, 9.404954100692629, 0.0 ], [ 125.994164673544006, 9.415993853772539, 0.0 ], [ 125.987022582164002, 9.42051131668603, 0.0 ], [ 125.978615348608997, 9.41650537031021, 0.0 ], [ 125.977340514898003, 9.40153651306429, 0.0 ] ] ] } }
]
}
