{
"type": "FeatureCollection",
"name": "polygon",
"features": [
{ "type": "Feature", "properties": { "id": 1 }, "geometry": { "type": "Polygon", "coordinates": [ [ [ -96.957145947428899, 27.967708242161098, 0.0 ], [ -96.914921985659106, 27.956234397370199, 0.0 ], [ -96.914921985659106, 27.956234397370199, 0.0 ], [ -96.884246297391599, 27.984889669648499, 0.0 ], [ -96.927352261662193, 28.018802664937301, 0.0 ], [ -96.936270614901602, 28.016054121801901, 0.0 ], [ -96.956988029496202, 27.993722338731601, 0.0 ], [ -96.957145947428899, 27.967708242161098, 0.0 ], [ -96.958148413065501, 27.969165038365801, 0.0 ], [ -96.957145947428899, 27.967708242161098, 0.0 ] ] ] } }
]
}
