{
"type": "FeatureCollection",
"name": "polygon",
"features": [
{ "type": "Feature", "properties": { "id": 1 }, "geometry": { "type": "Polygon", "coordinates": [ [ [ 122.520361961193004, 37.036109214570402, 0.0 ], [ 122.520483201564005, 37.035763845863499, 0.0 ], [ 122.520361961193004, 37.036109214570402, 0.0 ], [ 122.507206948950994, 37.041534601303098, 0.0 ], [ 122.507206948950994, 37.041534601303098, 0.0 ], [ 122.489749316585005, 37.034085385977399, 0.0 ], [ 122.495185503979997, 37.017972609752803, 0.0 ], [ 122.507189041535995, 37.018389749335697, 0.0 ], [ 122.520361961193004, 37.036109214570402, 0.0 ] ] ] } }
]
}
