{
"type": "FeatureCollection",
"name": "polygon",
"features": [
{ "type": "Feature", "properties": { "id": 1 }, "geometry": { "type": "Polygon", "coordinates": [ [ [ -91.027956871818503, 30.089779948851302, 0.0 ], [ -91.003285801289493, 30.089201424705301, 0.0 ], [ -91.000717950731101, 30.1062086729141, 0.0 ], [ -91.0085321925947, 30.114023612975501, 0.0 ], [ -91.037850352277403, 30.100457010481101, 0.0 ], [ -91.037231839324093, 30.102817344716701, 0.0 ], [ -91.037850352277403, 30.100457010481101, 0.0 ], [ -91.027956871818503, 30.089779948851302, 0.0 ], [ -91.027956871818503, 30.089779948851302, 0.0 ] ] ] } }
]
}
