{
"type": "FeatureCollection",
"name": "polygon",
"features": [
{ "type": "Feature", "properties": { "id": 1 }, "geometry": { "type": "Polygon", "coordinates": [ [ [ -10.1990346713725, 51.5894152063129, 0.0 ], [ -10.173021310659699, 51.582724176657599, 0.0 ], [ -10.173021310659699, 51.582724176657599, 0.0 ], [ -10.1480876736606, 51.5979178358821, 0.0 ], [ -10.147336036323599, 51.602685430776503, 0.0 ], [ -10.157083340472401, 51.606357004967499, 0.0 ], [ -10.1849190607991, 51.603572809940196, 0.0 ], [ -10.1990346713725, 51.5894152063129, 0.0 ], [ -10.199199375233899, 51.5913907711966, 0.0 ], [ -10.1990346713725, 51.5894152063129, 0.0 ] ] ] } }
]
}
