{
"type": "FeatureCollection",
"name": "polygon",
"features": [
{ "type": "Feature", "properties": { "id": 1 }, "geometry": { "type": "Polygon", "coordinates": [ [ [ -135.90634835955899, 58.633685454701698, 0.0 ], [ -135.939036768460994, 58.627835203003599, 0.0 ], [ -135.936601412123991, 58.605985884189003, 0.0 ], [ -135.895517893798001, 58.602314270718502, 0.0 ], [ -135.896184099841008, 58.602089711571402, 0.0 ], [ -135.895517893798001, 58.602314270718502, 0.0 ], [ -135.887725895014, 58.624657831338297, 0.0 ], [ -135.887725895014, 58.624657831338297, 0.0 ], [ -135.90634835955899, 58.633685454701698, 0.0 ] ] ] } }
]
}
