{
"type": "FeatureCollection",
"name": "polygon",
"features": [
{ "type": "Feature", "properties": { "id": 1 }, "geometry": { "type": "Polygon", "coordinates": [ [ [ 72.730577592060996, 21.065721492596701, 0.0 ], [ 72.730687638198802, 21.065872139785501, 0.0 ], [ 72.730577592060996, 21.065721492596701, 0.0 ], [ 72.731983012334993, 21.036468745557901, 0.0 ], [ 72.731983012334993, 21.036468745557901, 0.0 ], [ 72.739301477535193, 21.033958735528, 0.0 ], [ 72.753502644307801, 21.044432731682399, 0.0 ], [ 72.748043333483906, 21.063487142302701, 0.0 ], [ 72.730577592060996, 21.065721492596701, 0.0 ] ] ] } }
]
}
