{
"type": "FeatureCollection",
"name": "polygon",
"features": [
{ "type": "Feature", "properties": { "id": 1 }, "geometry": { "type": "Polygon", "coordinates": [ [ [ -67.4974100681994, 66.614649666845196, 0.0 ], [ -67.496098706938994, 66.614990986221798, 0.0 ], [ -67.4974100681994, 66.614649666845196, 0.0 ], [ -67.503804999114294, 66.588466271662398, 0.0 ], [ -67.503804999114294, 66.588466271662398, 0.0 ], [ -67.489817384253001, 66.584660528571902, 0.0 ], [ -67.447330910524897, 66.595312918404602, 0.0 ], [ -67.461021968472494, 66.611581242593104, 0.0 ], [ -67.4974100681994, 66.614649666845196, 0.0 ] ] ] } }
]
}
