{
"type": "FeatureCollection",
"name": "polygon",
"features": [
{ "type": "Feature", "properties": { "id": 1 }, "geometry": { "type": "Polygon", "coordinates": [ [ [ 125.976939697400994, 9.40192062307181, 0.0 ], [ 125.968328222451007, 9.40168034404905, 0.0 ], [ 125.968328222451007, 9.40168034404905, 0.0 ], [ 125.953114110052994, 9.387551137671061, 0.0 ], [ 125.961772168462005, 9.374402130057829, 0.0 ], [ 125.966439627230997, 9.375518401997139, 0.0 ], [ 125.980804683299993, 9.388490142279659, 0.0 ], [ 125.976939697400994, 9.40192062307181, 0.0 ], [ 125.977340514898003, 9.40153651306429, 0.0 ], [ 125.976939697400994, 9.40192062307181, 0.0 ] ] ] } }
]
}
