{
"type": "FeatureCollection",
"name": "polygon",
"features": [
{ "type": "Feature", "properties": { "id": 1 }, "geometry": { "type": "Polygon", "coordinates": [ [ [ -96.958148413065501, 27.969165038365801, 0.0 ], [ -97.003669907177894, 27.971555851343801, 0.0 ], [ -97.003669907177894, 27.971555851343801, 0.0 ], [ -97.014817660282105, 27.9512280481255, 0.0 ], [ -97.006597578587204, 27.935926025578301, 0.0 ], [ -96.973990607505897, 27.932083251953198, 0.0 ], [ -96.958148413065501, 27.969165038365801, 0.0 ], [ -96.957145947428899, 27.967708242161098, 0.0 ], [ -96.958148413065501, 27.969165038365801, 0.0 ] ] ] } }
]
}
