{
"type": "FeatureCollection",
"name": "polygon",
"features": [
{ "type": "Feature", "properties": { "id": 1 }, "geometry": { "type": "Polygon", "coordinates": [ [ [ -90.917075291129507, 69.611600750032096, 0.0 ], [ -90.914829585394301, 69.611941720456997, 0.0 ], [ -90.917075291129507, 69.611600750032096, 0.0 ], [ -90.948876745706201, 69.590187797076993, 0.0 ], [ -90.948876745706201, 69.590187797076993, 0.0 ], [ -90.902935260489002, 69.577104962724107, 0.0 ], [ -90.888459870175794, 69.577481283389602, 0.0 ], [ -90.869431597112296, 69.600363495481602, 0.0 ], [ -90.917075291129507, 69.611600750032096, 0.0 ] ] ] } }
]
}
