{
"type": "FeatureCollection",
"name": "point",
"features": [
{ "type": "Feature", "properties": { "id": 0, "lon": 126.342724529883, "lat": 34.869695335873502 }, "geometry": { "type": "Point", "coordinates": [ 126.342724529883, 34.869695335873502, 0.0 ] } },
{ "type": "Feature", "properties": { "id": 1, "lon": 126.34206484861301, "lat": 34.871009227656501 }, "geometry": { "type": "Point", "coordinates": [ 126.342064848613006, 34.871009227656501, 0.0 ] } },
{ "type": "Feature", "properties": { "id": 2, "lon": 126.342724529883, "lat": 34.869695335873502 }, "geometry": { "type": "Point", "coordinates": [ 126.342724529883, 34.869695335873502, 0.0 ] } },
{ "type": "Feature", "properties": { "id": 3, "lon": 126.36124652964, "lat": 34.864252743743101 }, "geometry": { "type": "Point", "coordinates": [ 126.361246529639999, 34.864252743743101, 0.0 ] } },
{ "type": "Feature", "properties": { "id": 4, "lon": 126.36124652964, "lat": 34.864252743743101 }, "geometry": { "type": "Point", "coordinates": [ 126.361246529639999, 34.864252743743101, 0.0 ] } },
{ "type": "Feature", "properties": { "id": 5, "lon": 126.380312694471, "lat": 34.868187386114101 }, "geometry": { "type": "Point", "coordinates": [ 126.380312694471002, 34.868187386114101, 0.0 ] } },
{ "type": "Feature", "properties": { "id": 6, "lon": 126.368986007936, "lat": 34.889690338009899 }, "geometry": { "type": "Point", "coordinates": [ 126.368986007936002, 34.889690338009899, 0.0 ] } },
{ "type": "Feature", "properties": { "id": 7, "lon": 126.345988118573, "lat": 34.880412122273199 }, "geometry": { "type": "Point", "coordinates": [ 126.345988118573004, 34.880412122273199, 0.0 ] } }
]
}
