{
"type": "FeatureCollection",
"name": "point",
"features": [
{ "type": "Feature", "properties": { "id": 0, "lon": -101.768931067536, "lat": 70.266869035017507 }, "geometry": { "type": "Point", "coordinates": [ -101.768931067536002, 70.266869035017507, 0.0 ] } },
{ "type": "Feature", "properties": { "id": 1, "lon": -101.768931067536, "lat": 70.266869035017507 }, "geometry": { "type": "Point", "coordinates": [ -101.768931067536002, 70.266869035017507, 0.0 ] } },
{ "type": "Feature", "properties": { "id": 2, "lon": -101.729500723482, "lat": 70.282641064236699 }, "geometry": { "type": "Point", "coordinates": [ -101.729500723482005, 70.282641064236699, 0.0 ] } },
{ "type": "Feature", "properties": { "id": 3, "lon": -101.736336090987, "lat": 70.285498553279893 }, "geometry": { "type": "Point", "coordinates": [ -101.736336090986995, 70.285498553279893, 0.0 ] } },
{ "type": "Feature", "properties": { "id": 4, "lon": -101.775822946443, "lat": 70.290239438927401 }, "geometry": { "type": "Point", "coordinates": [ -101.775822946443, 70.290239438927401, 0.0 ] } },
{ "type": "Feature", "properties": { "id": 5, "lon": -101.813493722221, "lat": 70.286447381222501 }, "geometry": { "type": "Point", "coordinates": [ -101.813493722220997, 70.286447381222501, 0.0 ] } },
{ "type": "Feature", "properties": { "id": 6, "lon": -101.831658448555, "lat": 70.273241622490502 }, "geometry": { "type": "Point", "coordinates": [ -101.831658448555004, 70.273241622490502, 0.0 ] } },
{ "type": "Feature", "properties": { "id": 7, "lon": -101.83170019807901, "lat": 70.273262242646197 }, "geometry": { "type": "Point", "coordinates": [ -101.831700198079005, 70.273262242646197, 0.0 ] } },
{ "type": "Feature", "properties": { "id": 8, "lon": -101.831658448555, "lat": 70.273241622490502 }, "geometry": { "type": "Point", "coordinates": [ -101.831658448555004, 70.273241622490502, 0.0 ] } }
]
}
