{
"type": "FeatureCollection",
"name": "polygon",
"features": [
{ "type": "Feature", "properties": { "id": 1 }, "geometry": { "type": "Polygon", "coordinates": [ [ [ 126.576124722797005, 34.666878092444897, 0.0 ], [ 126.576124722797005, 34.666878092444897, 0.0 ], [ 126.559018560145006, 34.673465639089798, 0.0 ], [ 126.545737065653995, 34.664603290507102, 0.0 ], [ 126.553661986739002, 34.650436305091098, 0.0 ], [ 126.575004095935995, 34.647457076372099, 0.0 ], [ 126.574760808803006, 34.647310599255299, 0.0 ], [ 126.575004095935995, 34.647457076372099, 0.0 ], [ 126.576124722797005, 34.666878092444897, 0.0 ] ] ] } }
]
}
