{
"type": "FeatureCollection",
"name": "point",
"features": [
{ "type": "Feature", "properties": { "id": 0, "lon": 126.34206484861301, "lat": 34.871009227656501 }, "geometry": { "type": "Point", "coordinates": [ 126.342064848613006, 34.871009227656501, 0.0 ] } },
{ "type": "Feature", "properties": { "id": 1, "lon": 126.342724529883, "lat": 34.869695335873502 }, "geometry": { "type": "Point", "coordinates": [ 126.342724529883, 34.869695335873502, 0.0 ] } },
{ "type": "Feature", "properties": { "id": 2, "lon": 126.34206484861301, "lat": 34.871009227656501 }, "geometry": { "type": "Point", "coordinates": [ 126.342064848613006, 34.871009227656501, 0.0 ] } },
{ "type": "Feature", "properties": { "id": 3, "lon": 126.304082968891, "lat": 34.879204932037297 }, "geometry": { "type": "Point", "coordinates": [ 126.304082968890995, 34.879204932037297, 0.0 ] } },
{ "type": "Feature", "properties": { "id": 4, "lon": 126.304082968891, "lat": 34.879204932037297 }, "geometry": { "type": "Point", "coordinates": [ 126.304082968890995, 34.879204932037297, 0.0 ] } },
{ "type": "Feature", "properties": { "id": 5, "lon": 126.292847071578, "lat": 34.860171287182098 }, "geometry": { "type": "Point", "coordinates": [ 126.292847071577995, 34.860171287182098, 0.0 ] } },
{ "type": "Feature", "properties": { "id": 6, "lon": 126.316570110022, "lat": 34.847656815426603 }, "geometry": { "type": "Point", "coordinates": [ 126.316570110021999, 34.847656815426603, 0.0 ] } },
{ "type": "Feature", "properties": { "id": 7, "lon": 126.333838210452, "lat": 34.853961227357999 }, "geometry": { "type": "Point", "coordinates": [ 126.333838210452001, 34.853961227357999, 0.0 ] } }
]
}
