{
"type": "FeatureCollection",
"name": "polygon",
"features": [
{ "type": "Feature", "properties": { "id": 1 }, "geometry": { "type": "Polygon", "coordinates": [ [ [ -106.416145439881006, 59.244051851626203, 0.0 ], [ -106.394530585986999, 59.266581348749703, 0.0 ], [ -106.396555192704, 59.270399379367497, 0.0 ], [ -106.433380553762007, 59.272387029329501, 0.0 ], [ -106.464886856928999, 59.251357348813499, 0.0 ], [ -106.464055109575995, 59.254876526322697, 0.0 ], [ -106.464886856928999, 59.251357348813499, 0.0 ], [ -106.416145439881006, 59.244051851626203, 0.0 ], [ -106.416145439881006, 59.244051851626203, 0.0 ] ] ] } }
]
}
