{
"type": "FeatureCollection",
"name": "polygon",
"features": [
{ "type": "Feature", "properties": { "id": 1 }, "geometry": { "type": "Polygon", "coordinates": [ [ [ -135.895517893798001, 58.602314270718502, 0.0 ], [ -135.896184099841008, 58.602089711571402, 0.0 ], [ -135.900708782489005, 58.575834021217197, 0.0 ], [ -135.900708782489005, 58.575834021217197, 0.0 ], [ -135.900168878034009, 58.575533289801598, 0.0 ], [ -135.871074619974991, 58.573217174726899, 0.0 ], [ -135.853525287477993, 58.587108875381901, 0.0 ], [ -135.874560313269001, 58.600938279423403, 0.0 ], [ -135.896184099841008, 58.602089711571402, 0.0 ], [ -135.895517893798001, 58.602314270718502, 0.0 ] ] ] } }
]
}
