{
"type": "FeatureCollection",
"name": "polygon",
"features": [
{ "type": "Feature", "properties": { "id": 1 }, "geometry": { "type": "Polygon", "coordinates": [ [ [ -90.978567722212105, 69.617143651718806, 0.0 ], [ -90.914829585394301, 69.611941720456997, 0.0 ], [ -90.917075291129507, 69.611600750032096, 0.0 ], [ -90.914829585394301, 69.611941720456997, 0.0 ], [ -90.891858374037199, 69.634382626282502, 0.0 ], [ -90.891858374037199, 69.634382626282502, 0.0 ], [ -90.934761851142994, 69.6426812828159, 0.0 ], [ -90.984858792725205, 69.634099429507103, 0.0 ], [ -90.991055723966696, 69.6270832734414, 0.0 ], [ -90.978567722212105, 69.617143651718806, 0.0 ] ] ] } }
]
}
