{
"type": "FeatureCollection",
"name": "point",
"features": [
{ "type": "Feature", "properties": { "id": 0, "lon": 72.707420296040098, "lat": 21.058358722206599 }, "geometry": { "type": "Point", "coordinates": [ 72.707420296040098, 21.058358722206599, 0.0 ] } },
{ "type": "Feature", "properties": { "id": 1, "lon": 72.730687638198802, "lat": 21.065872139785501 }, "geometry": { "type": "Point", "coordinates": [ 72.730687638198802, 21.065872139785501, 0.0 ] } },
{ "type": "Feature", "properties": { "id": 2, "lon": 72.730577592060996, "lat": 21.065721492596701 }, "geometry": { "type": "Point", "coordinates": [ 72.730577592060996, 21.065721492596701, 0.0 ] } },
{ "type": "Feature", "properties": { "id": 3, "lon": 72.730687638198802, "lat": 21.065872139785501 }, "geometry": { "type": "Point", "coordinates": [ 72.730687638198802, 21.065872139785501, 0.0 ] } },
{ "type": "Feature", "properties": { "id": 4, "lon": 72.728815829853403, "lat": 21.076933247848501 }, "geometry": { "type": "Point", "coordinates": [ 72.728815829853403, 21.076933247848501, 0.0 ] } },
{ "type": "Feature", "properties": { "id": 5, "lon": 72.728815829853403, "lat": 21.076933247848501 }, "geometry": { "type": "Point", "coordinates": [ 72.728815829853403, 21.076933247848501, 0.0 ] } },
{ "type": "Feature", "properties": { "id": 6, "lon": 72.716634754827098, "lat": 21.083668157810401 }, "geometry": { "type": "Point", "coordinates": [ 72.716634754827098, 21.083668157810401, 0.0 ] } },
{ "type": "Feature", "properties": { "id": 7, "lon": 72.700900808942194, "lat": 21.074498465883501 }, "geometry": { "type": "Point", "coordinates": [ 72.700900808942194, 21.074498465883501, 0.0 ] } }
]
}
