{
"type": "FeatureCollection",
"name": "polygon",
"features": [
{ "type": "Feature", "properties": { "id": 1 }, "geometry": { "type": "Polygon", "coordinates": [ [ [ 134.259020987098012, -4.00028666546211, 0.0 ], [ 134.259691092036007, -4.00546207123228, 0.0 ], [ 134.279293978635991, -4.01775202207497, 0.0 ], [ 134.27874100020199, -4.0180377359976, 0.0 ], [ 134.279293978635991, -4.01775202207497, 0.0 ], [ 134.284154896024006, -3.9989466660604, 0.0 ], [ 134.284154896024006, -3.9989466660604, 0.0 ], [ 134.271515287739987, -3.9878111530437, 0.0 ], [ 134.259020987098012, -4.00028666546211, 0.0 ] ] ] } }
]
}
