{
"type": "FeatureCollection",
"name": "point",
"features": [
{ "type": "Feature", "properties": { "id": 0, "lon": 125.977340514898, "lat": 9.4015365130642898 }, "geometry": { "type": "Point", "coordinates": [ 125.977340514898003, 9.40153651306429, 0.0 ] } },
{ "type": "Feature", "properties": { "id": 1, "lon": 125.97693969740099, "lat": 9.4019206230718098 }, "geometry": { "type": "Point", "coordinates": [ 125.976939697400994, 9.40192062307181, 0.0 ] } },
{ "type": "Feature", "properties": { "id": 2, "lon": 125.977340514898, "lat": 9.4015365130642898 }, "geometry": { "type": "Point", "coordinates": [ 125.977340514898003, 9.40153651306429, 0.0 ] } },
{ "type": "Feature", "properties": { "id": 3, "lon": 125.99482677020499, "lat": 9.4049541006926294 }, "geometry": { "type": "Point", "coordinates": [ 125.994826770204995, 9.404954100692629, 0.0 ] } },
{ "type": "Feature", "properties": { "id": 4, "lon": 125.99482677020499, "lat": 9.4049541006926294 }, "geometry": { "type": "Point", "coordinates": [ 125.994826770204995, 9.404954100692629, 0.0 ] } },
{ "type": "Feature", "properties": { "id": 5, "lon": 125.99416467354401, "lat": 9.4159938537725392 }, "geometry": { "type": "Point", "coordinates": [ 125.994164673544006, 9.415993853772539, 0.0 ] } },
{ "type": "Feature", "properties": { "id": 6, "lon": 125.987022582164, "lat": 9.4205113166860297 }, "geometry": { "type": "Point", "coordinates": [ 125.987022582164002, 9.42051131668603, 0.0 ] } },
{ "type": "Feature", "properties": { "id": 7, "lon": 125.978615348609, "lat": 9.41650537031021 }, "geometry": { "type": "Point", "coordinates": [ 125.978615348608997, 9.41650537031021, 0.0 ] } }
]
}
