{
"type": "FeatureCollection",
"name": "polygon",
"features": [
{ "type": "Feature", "properties": { "id": 1 }, "geometry": { "type": "Polygon", "coordinates": [ [ [ -67.4930026247538, 66.629053976601, 0.0 ], [ -67.537548452770594, 66.643186343391605, 0.0 ], [ -67.540498783039695, 66.643306567474994, 0.0 ], [ -67.554107000934906, 66.637070742622996, 0.0 ], [ -67.549273243277696, 66.626005223930605, 0.0 ], [ -67.506773095167404, 66.614954115026805, 0.0 ], [ -67.496098706938994, 66.614990986221798, 0.0 ], [ -67.496098706938994, 66.614990986221798, 0.0 ], [ -67.4974100681994, 66.614649666845196, 0.0 ], [ -67.4930026247538, 66.629053976601, 0.0 ], [ -67.4930026247538, 66.629053976601, 0.0 ] ] ] } }
]
}
