{
"type": "FeatureCollection",
"name": "point",
"features": [
{ "type": "Feature", "properties": { "id": 0, "lon": 134.25902098709801, "lat": -4.0002866654621103 }, "geometry": { "type": "Point", "coordinates": [ 134.259020987098012, -4.00028666546211, 0.0 ] } },
{ "type": "Feature", "properties": { "id": 1, "lon": 134.25969109203601, "lat": -4.0054620712322802 }, "geometry": { "type": "Point", "coordinates": [ 134.259691092036007, -4.00546207123228, 0.0 ] } },
{ "type": "Feature", "properties": { "id": 2, "lon": 134.27929397863599, "lat": -4.0177520220749701 }, "geometry": { "type": "Point", "coordinates": [ 134.279293978635991, -4.01775202207497, 0.0 ] } },
{ "type": "Feature", "properties": { "id": 3, "lon": 134.27874100020199, "lat": -4.0180377359976003 }, "geometry": { "type": "Point", "coordinates": [ 134.27874100020199, -4.0180377359976, 0.0 ] } },
{ "type": "Feature", "properties": { "id": 4, "lon": 134.27929397863599, "lat": -4.0177520220749701 }, "geometry": { "type": "Point", "coordinates": [ 134.279293978635991, -4.01775202207497, 0.0 ] } },
{ "type": "Feature", "properties": { "id": 5, "lon": 134.28415489602401, "lat": -3.9989466660603998 }, "geometry": { "type": "Point", "coordinates": [ 134.284154896024006, -3.9989466660604, 0.0 ] } },
{ "type": "Feature", "properties": { "id": 6, "lon": 134.28415489602401, "lat": -3.9989466660603998 }, "geometry": { "type": "Point", "coordinates": [ 134.284154896024006, -3.9989466660604, 0.0 ] } },
{ "type": "Feature", "properties": { "id": 7, "lon": 134.27151528773999, "lat": -3.9878111530437002 }, "geometry": { "type": "Point", "coordinates": [ 134.271515287739987, -3.9878111530437, 0.0 ] } }
]
}
