{
"type": "FeatureCollection",
"name": "polygon",
"features": [
{ "type": "Feature", "properties": { "id": 1 }, "geometry": { "type": "Polygon", "coordinates": [ [ [ 122.520483201564005, 37.035763845863499, 0.0 ], [ 122.520361961193004, 37.036109214570402, 0.0 ], [ 122.520483201564005, 37.035763845863499, 0.0 ], [ 122.528071224876996, 37.030600408915298, 0.0 ], [ 122.528071224876996, 37.030600408915298, 0.0 ], [ 122.548136552608, 37.028649072770897, 0.0 ], [ 122.551530508894999, 37.0457946808977, 0.0 ], [ 122.536863300736997, 37.052227086334099, 0.0 ], [ 122.520483201564005, 37.035763845863499, 0.0 ] ] ] } }
]
}
