{
"type": "FeatureCollection",
"name": "point",
"features": [
{ "type": "Feature", "properties": { "id": 0, "lon": -73.887747877426307, "lat": -50.029952675128698 }, "geometry": { "type": "Point", "coordinates": [ -73.887747877426307, -50.029952675128698, 0.0 ] } },
{ "type": "Feature", "properties": { "id": 1, "lon": -73.887747877426307, "lat": -50.029952675128698 }, "geometry": { "type": "Point", "coordinates": [ -73.887747877426307, -50.029952675128698, 0.0 ] } },
{ "type": "Feature", "properties": { "id": 2, "lon": -73.856215788328299, "lat": -50.026357709074098 }, "geometry": { "type": "Point", "coordinates": [ -73.856215788328299, -50.026357709074098, 0.0 ] } },
{ "type": "Feature", "properties": { "id": 3, "lon": -73.853180046004596, "lat": -50.010554642082298 }, "geometry": { "type": "Point", "coordinates": [ -73.853180046004596, -50.010554642082298, 0.0 ] } },
{ "type": "Feature", "properties": { "id": 4, "lon": -73.881182796213494, "lat": -50.002480862475402 }, "geometry": { "type": "Point", "coordinates": [ -73.881182796213494, -50.002480862475402, 0.0 ] } },
{ "type": "Feature", "properties": { "id": 5, "lon": -73.902169248560099, "lat": -50.023392922416299 }, "geometry": { "type": "Point", "coordinates": [ -73.902169248560099, -50.023392922416299, 0.0 ] } },
{ "type": "Feature", "properties": { "id": 6, "lon": -73.902394340184202, "lat": -50.022562898008097 }, "geometry": { "type": "Point", "coordinates": [ -73.902394340184202, -50.022562898008097, 0.0 ] } },
{ "type": "Feature", "properties": { "id": 7, "lon": -73.902169248560099, "lat": -50.023392922416299 }, "geometry": { "type": "Point", "coordinates": [ -73.902169248560099, -50.023392922416299, 0.0 ] } }
]
}
