{
"type": "FeatureCollection",
"name": "polygon",
"features": [
{ "type": "Feature", "properties": { "id": 1 }, "geometry": { "type": "Polygon", "coordinates": [ [ [ -73.902394340184202, -50.022562898008097, 0.0 ], [ -73.902169248560099, -50.023392922416299, 0.0 ], [ -73.902394340184202, -50.022562898008097, 0.0 ], [ -73.934903791241396, -50.007299537488699, 0.0 ], [ -73.934903791241396, -50.007299537488699, 0.0 ], [ -73.954986559756193, -50.021535217937597, 0.0 ], [ -73.948589144698204, -50.039469693999898, 0.0 ], [ -73.927607232432194, -50.041793155010602, 0.0 ], [ -73.902394340184202, -50.022562898008097, 0.0 ] ] ] } }
]
}
