{
"type": "FeatureCollection",
"name": "polygon",
"features": [
{ "type": "Feature", "properties": { "id": 1 }, "geometry": { "type": "Polygon", "coordinates": [ [ [ 126.342724529883, 34.869695335873502, 0.0 ], [ 126.342064848613006, 34.871009227656501, 0.0 ], [ 126.342724529883, 34.869695335873502, 0.0 ], [ 126.361246529639999, 34.864252743743101, 0.0 ], [ 126.361246529639999, 34.864252743743101, 0.0 ], [ 126.380312694471002, 34.868187386114101, 0.0 ], [ 126.368986007936002, 34.889690338009899, 0.0 ], [ 126.345988118573004, 34.880412122273199, 0.0 ], [ 126.342724529883, 34.869695335873502, 0.0 ] ] ] } }
]
}
