{
"type": "FeatureCollection",
"name": "polygon",
"features": [
{ "type": "Feature", "properties": { "id": 1 }, "geometry": { "type": "Polygon", "coordinates": [ [ [ -73.887747877426307, -50.029952675128698, 0.0 ], [ -73.887747877426307, -50.029952675128698, 0.0 ], [ -73.856215788328299, -50.026357709074098, 0.0 ], [ -73.853180046004596, -50.010554642082298, 0.0 ], [ -73.881182796213494, -50.002480862475402, 0.0 ], [ -73.902169248560099, -50.023392922416299, 0.0 ], [ -73.902394340184202, -50.022562898008097, 0.0 ], [ -73.902169248560099, -50.023392922416299, 0.0 ], [ -73.887747877426307, -50.029952675128698, 0.0 ] ] ] } }
]
}
